{
  "type": "FeatureCollection",
  "features": [
    {
      "type": "Feature",
      "properties": {
        "norad_id": 39160,
        "name": "VNREDSAT 1",
        "group": "resource",
        "lat": -72.47079022228225,
        "lon": 70.27439114216043,
        "alt_km": 685.4073487395008,
        "timestamp": "2025-12-14T20:40:31.424793+00:00",
        "meta_object_name": "VNREDSAT 1",
        "meta_object_id": "2013-021B",
        "meta_epoch": "2025-12-14T07:53:59.750592",
        "meta_mean_motion": 14.64927055,
        "meta_eccentricity": 0.00012816,
        "meta_inclination": 97.9372,
        "meta_ra_of_asc_node": 43.5482,
        "meta_arg_of_pericenter": 79.3823,
        "meta_mean_anomaly": 280.7525,
        "meta_ephemeris_type": 0,
        "meta_classification_type": "U",
        "meta_norad_cat_id": 39160,
        "meta_element_set_no": 999,
        "meta_rev_at_epoch": 67322,
        "meta_bstar": 0.00021539669,
        "meta_mean_motion_dot": 1.107e-05,
        "meta_mean_motion_ddot": 0,
        "tle_line1": "1 39160U 13021B   25348.32916378  .00001107  00000+0  21540-3 0  9990",
        "tle_line2": "2 39160  97.9372  43.5482 0001281  79.3823 280.7525 14.64927055673220"
      },
      "geometry": {
        "type": "Point",
        "coordinates": [
          70.27439114216043,
          -72.47079022228225
        ]
      }
    },
    {
      "type": "Feature",
      "properties": {
        "norad_id": 39227,
        "name": "ARIRANG-5 (KOMPSAT-5)",
        "group": "resource",
        "lat": -53.44520764907893,
        "lon": -176.47024823790107,
        "alt_km": 560.5656099530561,
        "timestamp": "2025-12-14T20:40:31.424803+00:00",
        "meta_object_name": "ARIRANG-5 (KOMPSAT-5)",
        "meta_object_id": "2013-042A",
        "meta_epoch": "2025-12-14T08:08:45.653856",
        "meta_mean_motion": 15.04514337,
        "meta_eccentricity": 0.00035761,
        "meta_inclination": 97.6147,
        "meta_ra_of_asc_node": 172.6203,
        "meta_arg_of_pericenter": 50.5012,
        "meta_mean_anomaly": 309.653,
        "meta_ephemeris_type": 0,
        "meta_classification_type": "U",
        "meta_norad_cat_id": 39227,
        "meta_element_set_no": 999,
        "meta_rev_at_epoch": 67606,
        "meta_bstar": 0.0001745685,
        "meta_mean_motion_dot": 2.384e-05,
        "meta_mean_motion_ddot": 0,
        "tle_line1": "1 39227U 13042A   25348.33941729  .00002384  00000+0  17457-3 0  9996",
        "tle_line2": "2 39227  97.6147 172.6203 0003576  50.5012 309.6530 15.04514337676068"
      },
      "geometry": {
        "type": "Point",
        "coordinates": [
          -176.47024823790107,
          -53.44520764907893
        ]
      }
    },
    {
      "type": "Feature",
      "properties": {
        "norad_id": 39418,
        "name": "SKYSAT-A",
        "group": "resource",
        "lat": 13.115571468011696,
        "lon": 37.26773938473104,
        "alt_km": 544.1140486576251,
        "timestamp": "2025-12-14T20:40:31.424814+00:00",
        "meta_object_name": "SKYSAT-A",
        "meta_object_id": "2013-066C",
        "meta_epoch": "2025-12-14T03:08:27.850560",
        "meta_mean_motion": 15.11618843,
        "meta_eccentricity": 0.00207092,
        "meta_inclination": 97.4113,
        "meta_ra_of_asc_node": 38.2972,
        "meta_arg_of_pericenter": 231.2859,
        "meta_mean_anomaly": 128.652,
        "meta_ephemeris_type": 0,
        "meta_classification_type": "U",
        "meta_norad_cat_id": 39418,
        "meta_element_set_no": 999,
        "meta_rev_at_epoch": 66051,
        "meta_bstar": 0.00024023595,
        "meta_mean_motion_dot": 4.038e-05,
        "meta_mean_motion_ddot": 0,
        "tle_line1": "1 39418U 13066C   25348.13087790  .00004038  00000+0  24024-3 0  9997",
        "tle_line2": "2 39418  97.4113  38.2972 0020709 231.2859 128.6520 15.11618843660511"
      },
      "geometry": {
        "type": "Point",
        "coordinates": [
          37.26773938473104,
          13.115571468011696
        ]
      }
    },
    {
      "type": "Feature",
      "properties": {
        "norad_id": 39419,
        "name": "DUBAISAT-2",
        "group": "resource",
        "lat": 48.786282070306854,
        "lon": 167.79080046897639,
        "alt_km": 543.933211638815,
        "timestamp": "2025-12-14T20:40:31.424825+00:00",
        "meta_object_name": "DUBAISAT-2",
        "meta_object_id": "2013-066D",
        "meta_epoch": "2025-12-14T07:21:40.501728",
        "meta_mean_motion": 15.08384291,
        "meta_eccentricity": 0.00103867,
        "meta_inclination": 97.4457,
        "meta_ra_of_asc_node": 338.6658,
        "meta_arg_of_pericenter": 316.2814,
        "meta_mean_anomaly": 43.7591,
        "meta_ephemeris_type": 0,
        "meta_classification_type": "U",
        "meta_norad_cat_id": 39419,
        "meta_element_set_no": 999,
        "meta_rev_at_epoch": 65850,
        "meta_bstar": 0.00044803402,
        "meta_mean_motion_dot": 6.914e-05,
        "meta_mean_motion_ddot": 0,
        "tle_line1": "1 39419U 13066D   25348.30671877  .00006914  00000+0  44803-3 0  9994",
        "tle_line2": "2 39419  97.4457 338.6658 0010386 316.2814  43.7591 15.08384291658500"
      },
      "geometry": {
        "type": "Point",
        "coordinates": [
          167.79080046897639,
          48.786282070306854
        ]
      }
    },
    {
      "type": "Feature",
      "properties": {
        "norad_id": 39574,
        "name": "GPM-CORE",
        "group": "resource",
        "lat": -7.7565189860027965,
        "lon": 29.22553023962328,
        "alt_km": 432.21984622993114,
        "timestamp": "2025-12-14T20:40:31.424836+00:00",
        "meta_object_name": "GPM-CORE",
        "meta_object_id": "2014-009C",
        "meta_epoch": "2025-12-14T04:19:16.886784",
        "meta_mean_motion": 15.44494521,
        "meta_eccentricity": 0.00097658,
        "meta_inclination": 64.9734,
        "meta_ra_of_asc_node": 207.8575,
        "meta_arg_of_pericenter": 245.6852,
        "meta_mean_anomaly": 114.3269,
        "meta_ephemeris_type": 0,
        "meta_classification_type": "U",
        "meta_norad_cat_id": 39574,
        "meta_element_set_no": 999,
        "meta_rev_at_epoch": 66923,
        "meta_bstar": 0.00018583137,
        "meta_mean_motion_dot": 8.428e-05,
        "meta_mean_motion_ddot": 0,
        "tle_line1": "1 39574U 14009C   25348.18005656  .00008428  00000+0  18583-3 0  9994",
        "tle_line2": "2 39574  64.9734 207.8575 0009765 245.6852 114.3269 15.44494521669237"
      },
      "geometry": {
        "type": "Point",
        "coordinates": [
          29.22553023962328,
          -7.7565189860027965
        ]
      }
    },
    {
      "type": "Feature",
      "properties": {
        "norad_id": 39634,
        "name": "SENTINEL-1A",
        "group": "resource",
        "lat": 74.58591616305311,
        "lon": -154.47811788032467,
        "alt_km": 687.8159877338558,
        "timestamp": "2025-12-14T20:40:31.424847+00:00",
        "meta_object_name": "SENTINEL-1A",
        "meta_object_id": "2014-016A",
        "meta_epoch": "2025-12-14T07:02:20.745024",
        "meta_mean_motion": 14.59199634,
        "meta_eccentricity": 0.00012386,
        "meta_inclination": 98.1807,
        "meta_ra_of_asc_node": 353.512,
        "meta_arg_of_pericenter": 85.5781,
        "meta_mean_anomaly": 274.556,
        "meta_ephemeris_type": 0,
        "meta_classification_type": "U",
        "meta_norad_cat_id": 39634,
        "meta_element_set_no": 999,
        "meta_rev_at_epoch": 62305,
        "meta_bstar": 1.6436472e-05,
        "meta_mean_motion_dot": 3.2e-07,
        "meta_mean_motion_ddot": 0,
        "tle_line1": "1 39634U 14016A   25348.29329566  .00000032  00000+0  16436-4 0  9999",
        "tle_line2": "2 39634  98.1807 353.5120 0001238  85.5781 274.5560 14.59199634623053"
      },
      "geometry": {
        "type": "Point",
        "coordinates": [
          -154.47811788032467,
          74.58591616305311
        ]
      }
    },
    {
      "type": "Feature",
      "properties": {
        "norad_id": 39731,
        "name": "KAZEOSAT 1",
        "group": "resource",
        "lat": -52.36751726253394,
        "lon": 71.69288213975709,
        "alt_km": 759.3115756880698,
        "timestamp": "2025-12-14T20:40:31.424858+00:00",
        "meta_object_name": "KAZEOSAT 1",
        "meta_object_id": "2014-024A",
        "meta_epoch": "2025-12-14T07:35:58.494336",
        "meta_mean_motion": 14.42064462,
        "meta_eccentricity": 0.00011221,
        "meta_inclination": 98.343,
        "meta_ra_of_asc_node": 60.1883,
        "meta_arg_of_pericenter": 96.5115,
        "meta_mean_anomaly": 263.6203,
        "meta_ephemeris_type": 0,
        "meta_classification_type": "U",
        "meta_norad_cat_id": 39731,
        "meta_element_set_no": 999,
        "meta_rev_at_epoch": 61191,
        "meta_bstar": 0.000141969,
        "meta_mean_motion_dot": 4.23e-06,
        "meta_mean_motion_ddot": 0,
        "tle_line1": "1 39731U 14024A   25348.31664924  .00000423  00000+0  14197-3 0  9994",
        "tle_line2": "2 39731  98.3430  60.1883 0001122  96.5115 263.6203 14.42064462611914"
      },
      "geometry": {
        "type": "Point",
        "coordinates": [
          71.69288213975709,
          -52.36751726253394
        ]
      }
    }
  ]
}